{
  "type": "FeatureCollection",
  "features": [
    {
      "type": "Feature",
      "properties": {
        "norad_id": 29780,
        "name": "FENGYUN 1C DEB",
        "group": "fengyun-1c-debris",
        "lat": -0.80212214479456,
        "lon": -95.18396567955374,
        "alt_km": 846.1314947533319,
        "timestamp": "2025-12-09T21:34:11.679095+00:00",
        "meta_object_name": "FENGYUN 1C DEB",
        "meta_object_id": "1999-025BW",
        "meta_epoch": "2025-12-08T18:32:07.991808",
        "meta_mean_motion": 14.20998637,
        "meta_eccentricity": 0.00402093,
        "meta_inclination": 99.2776,
        "meta_ra_of_asc_node": 263.5028,
        "meta_arg_of_pericenter": 139.7211,
        "meta_mean_anomaly": 220.6955,
        "meta_ephemeris_type": 0,
        "meta_classification_type": "U",
        "meta_norad_cat_id": 29780,
        "meta_element_set_no": 999,
        "meta_rev_at_epoch": 97022,
        "meta_bstar": 0.0027990967,
        "meta_mean_motion_dot": 6.074e-05,
        "meta_mean_motion_ddot": 0,
        "tle_line1": "1 29780U 99025BW  25342.77231472  .00006074  00000+0  27991-2 0  9996",
        "tle_line2": "2 29780  99.2776 263.5028 0040209 139.7211 220.6955 14.20998637970221"
      },
      "geometry": {
        "type": "Point",
        "coordinates": [
          -95.18396567955374,
          -0.80212214479456
        ]
      }
    },
    {
      "type": "Feature",
      "properties": {
        "norad_id": 29781,
        "name": "FENGYUN 1C DEB",
        "group": "fengyun-1c-debris",
        "lat": 67.13176820143069,
        "lon": 179.70814399894266,
        "alt_km": 851.0133679223227,
        "timestamp": "2025-12-09T21:34:11.679105+00:00",
        "meta_object_name": "FENGYUN 1C DEB",
        "meta_object_id": "1999-025BX",
        "meta_epoch": "2025-12-09T11:30:28.596096",
        "meta_mean_motion": 14.05217141,
        "meta_eccentricity": 0.00717042,
        "meta_inclination": 98.8095,
        "meta_ra_of_asc_node": 337.7281,
        "meta_arg_of_pericenter": 182.2387,
        "meta_mean_anomaly": 329.9657,
        "meta_ephemeris_type": 0,
        "meta_classification_type": "U",
        "meta_norad_cat_id": 29781,
        "meta_element_set_no": 999,
        "meta_rev_at_epoch": 96597,
        "meta_bstar": 0.00087924584,
        "meta_mean_motion_dot": 1.412e-05,
        "meta_mean_motion_ddot": 0,
        "tle_line1": "1 29781U 99025BX  25343.47949764  .00001412  00000+0  87925-3 0  9990",
        "tle_line2": "2 29781  98.8095 337.7281 0071704 182.2387 329.9657 14.05217141965972"
      },
      "geometry": {
        "type": "Point",
        "coordinates": [
          179.70814399894266,
          67.13176820143069
        ]
      }
    },
    {
      "type": "Feature",
      "properties": {
        "norad_id": 29782,
        "name": "FENGYUN 1C DEB",
        "group": "fengyun-1c-debris",
        "lat": 78.51150193892443,
        "lon": -14.593978464039372,
        "alt_km": 870.7958572441448,
        "timestamp": "2025-12-09T21:34:11.679115+00:00",
        "meta_object_name": "FENGYUN 1C DEB",
        "meta_object_id": "1999-025BY",
        "meta_epoch": "2025-12-09T15:05:51.526176",
        "meta_mean_motion": 14.11638311,
        "meta_eccentricity": 0.00553557,
        "meta_inclination": 99.0993,
        "meta_ra_of_asc_node": 37.1807,
        "meta_arg_of_pericenter": 211.5181,
        "meta_mean_anomaly": 302.2432,
        "meta_ephemeris_type": 0,
        "meta_classification_type": "U",
        "meta_norad_cat_id": 29782,
        "meta_element_set_no": 999,
        "meta_rev_at_epoch": 96627,
        "meta_bstar": 0.00201964,
        "meta_mean_motion_dot": 3.681e-05,
        "meta_mean_motion_ddot": 0,
        "tle_line1": "1 29782U 99025BY  25343.62906859  .00003681  00000+0  20196-2 0  9992",
        "tle_line2": "2 29782  99.0993  37.1807 0055355 211.5181 302.2432 14.11638311966272"
      },
      "geometry": {
        "type": "Point",
        "coordinates": [
          -14.593978464039372,
          78.51150193892443
        ]
      }
    },
    {
      "type": "Feature",
      "properties": {
        "norad_id": 29784,
        "name": "FENGYUN 1C DEB",
        "group": "fengyun-1c-debris",
        "lat": 42.898182408858005,
        "lon": -105.80051897419229,
        "alt_km": 791.795921072282,
        "timestamp": "2025-12-09T21:34:11.679126+00:00",
        "meta_object_name": "FENGYUN 1C DEB",
        "meta_object_id": "1999-025CA",
        "meta_epoch": "2025-12-09T13:48:48.498912",
        "meta_mean_motion": 14.30569985,
        "meta_eccentricity": 0.00595744,
        "meta_inclination": 98.945,
        "meta_ra_of_asc_node": 262.2827,
        "meta_arg_of_pericenter": 306.749,
        "meta_mean_anomaly": 232.7322,
        "meta_ephemeris_type": 0,
        "meta_classification_type": "U",
        "meta_norad_cat_id": 29784,
        "meta_element_set_no": 999,
        "meta_rev_at_epoch": 98314,
        "meta_bstar": 0.0010123316,
        "meta_mean_motion_dot": 2.646e-05,
        "meta_mean_motion_ddot": 0,
        "tle_line1": "1 29784U 99025CA  25343.57556133  .00002646  00000+0  10123-2 0  9993",
        "tle_line2": "2 29784  98.9450 262.2827 0059574 306.7490 232.7322 14.30569985983141"
      },
      "geometry": {
        "type": "Point",
        "coordinates": [
          -105.80051897419229,
          42.898182408858005
        ]
      }
    },
    {
      "type": "Feature",
      "properties": {
        "norad_id": 29786,
        "name": "FENGYUN 1C DEB",
        "group": "fengyun-1c-debris",
        "lat": -20.92211760664153,
        "lon": 177.83260018496514,
        "alt_km": 886.5489651628168,
        "timestamp": "2025-12-09T21:34:11.679136+00:00",
        "meta_object_name": "FENGYUN 1C DEB",
        "meta_object_id": "1999-025CC",
        "meta_epoch": "2025-12-09T00:25:01.769376",
        "meta_mean_motion": 14.0908054,
        "meta_eccentricity": 0.007713,
        "meta_inclination": 98.7359,
        "meta_ra_of_asc_node": 0.3481,
        "meta_arg_of_pericenter": 313.693,
        "meta_mean_anomaly": 99.8061,
        "meta_ephemeris_type": 0,
        "meta_classification_type": "U",
        "meta_norad_cat_id": 29786,
        "meta_element_set_no": 999,
        "meta_rev_at_epoch": 97108,
        "meta_bstar": 0.00022945362,
        "meta_mean_motion_dot": 3.66e-06,
        "meta_mean_motion_ddot": 0,
        "tle_line1": "1 29786U 99025CC  25343.01738159  .00000366  00000+0  22945-3 0  9997",
        "tle_line2": "2 29786  98.7359   0.3481 0077130 313.6930  99.8061 14.09080540971083"
      },
      "geometry": {
        "type": "Point",
        "coordinates": [
          177.83260018496514,
          -20.92211760664153
        ]
      }
    },
    {
      "type": "Feature",
      "properties": {
        "norad_id": 29788,
        "name": "FENGYUN 1C DEB",
        "group": "fengyun-1c-debris",
        "lat": -35.40934387320724,
        "lon": 61.82576488439431,
        "alt_km": 830.1706144289183,
        "timestamp": "2025-12-09T21:34:11.679147+00:00",
        "meta_object_name": "FENGYUN 1C DEB",
        "meta_object_id": "1999-025CE",
        "meta_epoch": "2025-12-09T15:46:11.456256",
        "meta_mean_motion": 14.25934956,
        "meta_eccentricity": 0.00429937,
        "meta_inclination": 98.7836,
        "meta_ra_of_asc_node": 55.2731,
        "meta_arg_of_pericenter": 197.6843,
        "meta_mean_anomaly": 326.2524,
        "meta_ephemeris_type": 0,
        "meta_classification_type": "U",
        "meta_norad_cat_id": 29788,
        "meta_element_set_no": 999,
        "meta_rev_at_epoch": 97311,
        "meta_bstar": 0.0026181497,
        "meta_mean_motion_dot": 6.26e-05,
        "meta_mean_motion_ddot": 0,
        "tle_line1": "1 29788U 99025CE  25343.65707704  .00006260  00000+0  26181-2 0  9995",
        "tle_line2": "2 29788  98.7836  55.2731 0042993 197.6843 326.2524 14.25934956973118"
      },
      "geometry": {
        "type": "Point",
        "coordinates": [
          61.82576488439431,
          -35.40934387320724
        ]
      }
    },
    {
      "type": "Feature",
      "properties": {
        "norad_id": 29789,
        "name": "FENGYUN 1C DEB",
        "group": "fengyun-1c-debris",
        "lat": 57.6324315244038,
        "lon": 2.049290695111081,
        "alt_km": 1264.848965641625,
        "timestamp": "2025-12-09T21:34:11.679157+00:00",
        "meta_object_name": "FENGYUN 1C DEB",
        "meta_object_id": "1999-025CF",
        "meta_epoch": "2025-12-09T10:36:41.832576",
        "meta_mean_motion": 13.54229575,
        "meta_eccentricity": 0.0298347,
        "meta_inclination": 99.4514,
        "meta_ra_of_asc_node": 166.3759,
        "meta_arg_of_pericenter": 287.1168,
        "meta_mean_anomaly": 129.9843,
        "meta_ephemeris_type": 0,
        "meta_classification_type": "U",
        "meta_norad_cat_id": 29789,
        "meta_element_set_no": 999,
        "meta_rev_at_epoch": 92943,
        "meta_bstar": 0.0022360053,
        "meta_mean_motion_dot": 1.975e-05,
        "meta_mean_motion_ddot": 0,
        "tle_line1": "1 29789U 99025CF  25343.44215084  .00001975  00000+0  22360-2 0  9991",
        "tle_line2": "2 29789  99.4514 166.3759 0298347 287.1168 129.9843 13.54229575929438"
      },
      "geometry": {
        "type": "Point",
        "coordinates": [
          2.049290695111081,
          57.6324315244038
        ]
      }
    }
  ]
}